[{"OBJECT_NAME":"ONEWEB-0101","OBJECT_ID":"2021-025H","EPOCH":"2025-11-27T19:20:53.049120","MEAN_MOTION":13.13470597,"ECCENTRICITY":0.00018547,"INCLINATION":87.8989,"RA_OF_ASC_NODE":0.2618,"ARG_OF_PERICENTER":89.2905,"MEAN_ANOMALY":270.8437,"EPHEMERIS_TYPE":0,"CLASSIFICATION_TYPE":"U","NORAD_CAT_ID":48049,"ELEMENT_SET_NO":999,"REV_AT_EPOCH":22706,"BSTAR":-0.00064838704,"MEAN_MOTION_DOT":-2.24e-6,"MEAN_MOTION_DDOT":0},{"OBJECT_NAME":"ONEWEB-0113","OBJECT_ID":"2021-025J","EPOCH":"2025-11-27T19:52:46.839360","MEAN_MOTION":13.13983797,"ECCENTRICITY":0.00017807,"INCLINATION":87.8996,"RA_OF_ASC_NODE":0.1884,"ARG_OF_PERICENTER":102.7791,"MEAN_ANOMALY":257.3538,"EPHEMERIS_TYPE":0,"CLASSIFICATION_TYPE":"U","NORAD_CAT_ID":48050,"ELEMENT_SET_NO":999,"REV_AT_EPOCH":22716,"BSTAR":0.00043121729,"MEAN_MOTION_DOT":1.71e-6,"MEAN_MOTION_DDOT":0},{"OBJECT_NAME":"ONEWEB-0112","OBJECT_ID":"2021-025K","EPOCH":"2025-11-27T20:21:50.164128","MEAN_MOTION":13.13469922,"ECCENTRICITY":0.00017335,"INCLINATION":87.8995,"RA_OF_ASC_NODE":0.2166,"ARG_OF_PERICENTER":94.7236,"MEAN_ANOMALY":265.4091,"EPHEMERIS_TYPE":0,"CLASSIFICATION_TYPE":"U","NORAD_CAT_ID":48051,"ELEMENT_SET_NO":999,"REV_AT_EPOCH":22716,"BSTAR":0.00076591848,"MEAN_MOTION_DOT":2.92e-6,"MEAN_MOTION_DDOT":0},{"OBJECT_NAME":"ONEWEB-0156","OBJECT_ID":"2021-025L","EPOCH":"2025-11-27T15:04:55.600320","MEAN_MOTION":13.1346891,"ECCENTRICITY":0.00016774,"INCLINATION":87.8998,"RA_OF_ASC_NODE":0.2719,"ARG_OF_PERICENTER":91.5233,"MEAN_ANOMALY":268.6089,"EPHEMERIS_TYPE":0,"CLASSIFICATION_TYPE":"U","NORAD_CAT_ID":48052,"ELEMENT_SET_NO":999,"REV_AT_EPOCH":22711,"BSTAR":7.8499728e-5,"MEAN_MOTION_DOT":4.1e-7,"MEAN_MOTION_DDOT":0},{"OBJECT_NAME":"ONEWEB-0161","OBJECT_ID":"2021-025M","EPOCH":"2025-11-27T19:57:27.063072","MEAN_MOTION":13.13468829,"ECCENTRICITY":0.00016716,"INCLINATION":87.8991,"RA_OF_ASC_NODE":0.2477,"ARG_OF_PERICENTER":89.8,"MEAN_ANOMALY":270.3321,"EPHEMERIS_TYPE":0,"CLASSIFICATION_TYPE":"U","NORAD_CAT_ID":48053,"ELEMENT_SET_NO":999,"REV_AT_EPOCH":22707,"BSTAR":0.00045046345,"MEAN_MOTION_DOT":1.77e-6,"MEAN_MOTION_DDOT":0},{"OBJECT_NAME":"ONEWEB-0158","OBJECT_ID":"2021-025N","EPOCH":"2025-11-27T18:58:56.533440","MEAN_MOTION":13.13468773,"ECCENTRICITY":0.0002105,"INCLINATION":87.8997,"RA_OF_ASC_NODE":0.2395,"ARG_OF_PERICENTER":97.0084,"MEAN_ANOMALY":263.1284,"EPHEMERIS_TYPE":0,"CLASSIFICATION_TYPE":"U","NORAD_CAT_ID":48054,"ELEMENT_SET_NO":999,"REV_AT_EPOCH":22719,"BSTAR":-0.00020492655,"MEAN_MOTION_DOT":-6.2e-7,"MEAN_MOTION_DDOT":0},{"OBJECT_NAME":"ONEWEB-0157","OBJECT_ID":"2021-025P","EPOCH":"2025-11-27T19:35:30.491232","MEAN_MOTION":13.13468574,"ECCENTRICITY":0.00016028,"INCLINATION":87.8995,"RA_OF_ASC_NODE":0.2405,"ARG_OF_PERICENTER":81.3162,"MEAN_ANOMALY":278.8148,"EPHEMERIS_TYPE":0,"CLASSIFICATION_TYPE":"U","NORAD_CAT_ID":48055,"ELEMENT_SET_NO":999,"REV_AT_EPOCH":22713,"BSTAR":-0.0006237581,"MEAN_MOTION_DOT":-2.15e-6,"MEAN_MOTION_DDOT":0},{"OBJECT_NAME":"ONEWEB-0162","OBJECT_ID":"2021-025Q","EPOCH":"2025-11-27T19:01:11.153280","MEAN_MOTION":13.13470614,"ECCENTRICITY":0.00016273,"INCLINATION":87.8998,"RA_OF_ASC_NODE":0.2472,"ARG_OF_PERICENTER":95.7697,"MEAN_ANOMALY":264.3618,"EPHEMERIS_TYPE":0,"CLASSIFICATION_TYPE":"U","NORAD_CAT_ID":48056,"ELEMENT_SET_NO":999,"REV_AT_EPOCH":22710,"BSTAR":-0.00026379509,"MEAN_MOTION_DOT":-8.4e-7,"MEAN_MOTION_DDOT":0},{"OBJECT_NAME":"ONEWEB-0155","OBJECT_ID":"2021-025R","EPOCH":"2025-11-27T19:11:07.842912","MEAN_MOTION":13.13470804,"ECCENTRICITY":0.00018768,"INCLINATION":87.8998,"RA_OF_ASC_NODE":0.251,"ARG_OF_PERICENTER":88.98,"MEAN_ANOMALY":271.1544,"EPHEMERIS_TYPE":0,"CLASSIFICATION_TYPE":"U","NORAD_CAT_ID":48057,"ELEMENT_SET_NO":999,"REV_AT_EPOCH":22724,"BSTAR":-0.00077339681,"MEAN_MOTION_DOT":-2.7e-6,"MEAN_MOTION_DDOT":0},{"OBJECT_NAME":"ONEWEB-0149","OBJECT_ID":"2021-025S","EPOCH":"2025-11-27T14:13:44.179680","MEAN_MOTION":13.13470538,"ECCENTRICITY":0.00016034,"INCLINATION":87.8993,"RA_OF_ASC_NODE":0.2854,"ARG_OF_PERICENTER":98.5628,"MEAN_ANOMALY":261.5683,"EPHEMERIS_TYPE":0,"CLASSIFICATION_TYPE":"U","NORAD_CAT_ID":48058,"ELEMENT_SET_NO":999,"REV_AT_EPOCH":22702,"BSTAR":-7.5374897e-5,"MEAN_MOTION_DOT":-1.5e-7,"MEAN_MOTION_DDOT":0},{"OBJECT_NAME":"ONEWEB-0148","OBJECT_ID":"2021-025T","EPOCH":"2025-11-27T18:49:11.636544","MEAN_MOTION":13.13469346,"ECCENTRICITY":0.00011642,"INCLINATION":87.8989,"RA_OF_ASC_NODE":0.2683,"ARG_OF_PERICENTER":98.9189,"MEAN_ANOMALY":261.2072,"EPHEMERIS_TYPE":0,"CLASSIFICATION_TYPE":"U","NORAD_CAT_ID":48059,"ELEMENT_SET_NO":999,"REV_AT_EPOCH":22717,"BSTAR":0.00030644898,"MEAN_MOTION_DOT":1.25e-6,"MEAN_MOTION_DDOT":0},{"OBJECT_NAME":"ONEWEB-0160","OBJECT_ID":"2021-025U","EPOCH":"2025-11-27T19:13:34.368672","MEAN_MOTION":13.13469825,"ECCENTRICITY":0.00024044,"INCLINATION":87.8992,"RA_OF_ASC_NODE":0.2623,"ARG_OF_PERICENTER":109.0541,"MEAN_ANOMALY":251.0849,"EPHEMERIS_TYPE":0,"CLASSIFICATION_TYPE":"U","NORAD_CAT_ID":48060,"ELEMENT_SET_NO":999,"REV_AT_EPOCH":22712,"BSTAR":-0.00064903935,"MEAN_MOTION_DOT":-2.24e-6,"MEAN_MOTION_DDOT":0},{"OBJECT_NAME":"ONEWEB-0163","OBJECT_ID":"2021-025V","EPOCH":"2025-11-27T18:51:38.122560","MEAN_MOTION":13.13469627,"ECCENTRICITY":0.0001721,"INCLINATION":87.8997,"RA_OF_ASC_NODE":0.2506,"ARG_OF_PERICENTER":84.5395,"MEAN_ANOMALY":275.5931,"EPHEMERIS_TYPE":0,"CLASSIFICATION_TYPE":"U","NORAD_CAT_ID":48061,"ELEMENT_SET_NO":999,"REV_AT_EPOCH":22724,"BSTAR":7.7869559e-5,"MEAN_MOTION_DOT":4.1e-7,"MEAN_MOTION_DDOT":0},{"OBJECT_NAME":"ONEWEB-0159","OBJECT_ID":"2021-025W","EPOCH":"2025-11-27T18:39:27.149184","MEAN_MOTION":13.13469961,"ECCENTRICITY":0.00015704,"INCLINATION":87.9,"RA_OF_ASC_NODE":0.2358,"ARG_OF_PERICENTER":89.1361,"MEAN_ANOMALY":270.9948,"EPHEMERIS_TYPE":0,"CLASSIFICATION_TYPE":"U","NORAD_CAT_ID":48062,"ELEMENT_SET_NO":999,"REV_AT_EPOCH":22716,"BSTAR":0.00086272165,"MEAN_MOTION_DOT":3.28e-6,"MEAN_MOTION_DDOT":0},{"OBJECT_NAME":"ONEWEB-0164","OBJECT_ID":"2021-025X","EPOCH":"2025-11-27T14:33:14.449536","MEAN_MOTION":13.13470122,"ECCENTRICITY":0.00018532,"INCLINATION":87.8996,"RA_OF_ASC_NODE":0.2765,"ARG_OF_PERICENTER":96.6716,"MEAN_ANOMALY":263.4625,"EPHEMERIS_TYPE":0,"CLASSIFICATION_TYPE":"U","NORAD_CAT_ID":48063,"ELEMENT_SET_NO":999,"REV_AT_EPOCH":22712,"BSTAR":0.00084360702,"MEAN_MOTION_DOT":3.21e-6,"MEAN_MOTION_DDOT":0},{"OBJECT_NAME":"ONEWEB-0167","OBJECT_ID":"2021-025Y","EPOCH":"2025-11-27T18:52:50.553408","MEAN_MOTION":13.13467779,"ECCENTRICITY":0.00021785,"INCLINATION":87.8989,"RA_OF_ASC_NODE":0.2699,"ARG_OF_PERICENTER":76.184,"MEAN_ANOMALY":283.9532,"EPHEMERIS_TYPE":0,"CLASSIFICATION_TYPE":"U","NORAD_CAT_ID":48064,"ELEMENT_SET_NO":999,"REV_AT_EPOCH":22713,"BSTAR":3.9896131e-5,"MEAN_MOTION_DOT":2.7e-7,"MEAN_MOTION_DDOT":0},{"OBJECT_NAME":"ONEWEB-0166","OBJECT_ID":"2021-025Z","EPOCH":"2025-11-27T19:25:45.591744","MEAN_MOTION":13.13470487,"ECCENTRICITY":0.00015885,"INCLINATION":87.8996,"RA_OF_ASC_NODE":0.2202,"ARG_OF_PERICENTER":94.8598,"MEAN_ANOMALY":265.2712,"EPHEMERIS_TYPE":0,"CLASSIFICATION_TYPE":"U","NORAD_CAT_ID":48065,"ELEMENT_SET_NO":999,"REV_AT_EPOCH":22721,"BSTAR":-0.00067884545,"MEAN_MOTION_DOT":-2.35e-6,"MEAN_MOTION_DDOT":0},{"OBJECT_NAME":"ONEWEB-0151","OBJECT_ID":"2021-025AA","EPOCH":"2025-11-27T19:28:11.929152","MEAN_MOTION":13.13470097,"ECCENTRICITY":0.00018723,"INCLINATION":87.8997,"RA_OF_ASC_NODE":0.2461,"ARG_OF_PERICENTER":90.6219,"MEAN_ANOMALY":269.5124,"EPHEMERIS_TYPE":0,"CLASSIFICATION_TYPE":"U","NORAD_CAT_ID":48066,"ELEMENT_SET_NO":999,"REV_AT_EPOCH":22715,"BSTAR":-0.00064057631,"MEAN_MOTION_DOT":-2.21e-6,"MEAN_MOTION_DDOT":0},{"OBJECT_NAME":"ONEWEB-0170","OBJECT_ID":"2021-025AB","EPOCH":"2025-11-27T19:40:23.623104","MEAN_MOTION":13.1347143,"ECCENTRICITY":0.00022713,"INCLINATION":87.8992,"RA_OF_ASC_NODE":0.2501,"ARG_OF_PERICENTER":95.3755,"MEAN_ANOMALY":264.7633,"EPHEMERIS_TYPE":0,"CLASSIFICATION_TYPE":"U","NORAD_CAT_ID":48067,"ELEMENT_SET_NO":999,"REV_AT_EPOCH":22711,"BSTAR":-0.00015752779,"MEAN_MOTION_DOT":-4.5e-7,"MEAN_MOTION_DDOT":0},{"OBJECT_NAME":"ONEWEB-0168","OBJECT_ID":"2021-025AC","EPOCH":"2025-11-27T19:18:26.881056","MEAN_MOTION":13.13469809,"ECCENTRICITY":0.00016799,"INCLINATION":87.9001,"RA_OF_ASC_NODE":0.2372,"ARG_OF_PERICENTER":89.1478,"MEAN_ANOMALY":270.9843,"EPHEMERIS_TYPE":0,"CLASSIFICATION_TYPE":"U","NORAD_CAT_ID":48068,"ELEMENT_SET_NO":999,"REV_AT_EPOCH":22712,"BSTAR":-0.00086073131,"MEAN_MOTION_DOT":-3.02e-6,"MEAN_MOTION_DDOT":0},{"OBJECT_NAME":"ONEWEB-0173","OBJECT_ID":"2021-025AD","EPOCH":"2025-11-27T22:45:39.095424","MEAN_MOTION":13.13469637,"ECCENTRICITY":0.00017873,"INCLINATION":87.8999,"RA_OF_ASC_NODE":0.2166,"ARG_OF_PERICENTER":80.4832,"MEAN_ANOMALY":279.6499,"EPHEMERIS_TYPE":0,"CLASSIFICATION_TYPE":"U","NORAD_CAT_ID":48069,"ELEMENT_SET_NO":999,"REV_AT_EPOCH":22738,"BSTAR":-0.00054278599,"MEAN_MOTION_DOT":-1.85e-6,"MEAN_MOTION_DDOT":0},{"OBJECT_NAME":"ONEWEB-0171","OBJECT_ID":"2021-025AE","EPOCH":"2025-11-27T19:59:53.812608","MEAN_MOTION":13.13469953,"ECCENTRICITY":0.00019047,"INCLINATION":87.898,"RA_OF_ASC_NODE":0.2638,"ARG_OF_PERICENTER":91.5334,"MEAN_ANOMALY":268.6014,"EPHEMERIS_TYPE":0,"CLASSIFICATION_TYPE":"U","NORAD_CAT_ID":48070,"ELEMENT_SET_NO":999,"REV_AT_EPOCH":22718,"BSTAR":0.0009032785,"MEAN_MOTION_DOT":3.43e-6,"MEAN_MOTION_DDOT":0},{"OBJECT_NAME":"ONEWEB-0172","OBJECT_ID":"2021-025AF","EPOCH":"2025-11-27T14:01:33.099168","MEAN_MOTION":13.13470533,"ECCENTRICITY":0.00018422,"INCLINATION":87.8999,"RA_OF_ASC_NODE":0.293,"ARG_OF_PERICENTER":89.3832,"MEAN_ANOMALY":270.7508,"EPHEMERIS_TYPE":0,"CLASSIFICATION_TYPE":"U","NORAD_CAT_ID":48071,"ELEMENT_SET_NO":999,"REV_AT_EPOCH":22804,"BSTAR":-0.00071643178,"MEAN_MOTION_DOT":-2.49e-6,"MEAN_MOTION_DDOT":0}]
